ONEWEB-0158             
1 48054U 21025N   26190.29599329 -.00001103  00000+0 -30558-2 0  9996
2 48054  87.8981 315.8194 0001872 104.2676 255.8661 13.13463100256535
ONEWEB-0157             
1 48055U 21025P   26191.31169542 -.00000055  00000+0 -18457-3 0  9991
2 48055  87.8973 315.6220 0002337  99.8130 260.3263 13.13471816256606
ONEWEB-0162             
1 48056U 21025Q   26191.28786271 -.00000210  00000+0 -60977-3 0  9999
2 48056  87.8978 315.6266 0001902  94.6222 265.5124 13.13469043256572
ONEWEB-0155             
1 48057U 21025R   26191.75185147 -.00000276  00000+0 -78982-3 0  9994
2 48057  87.8976 315.5317 0002023  95.9647 264.1712 13.13473459256773
ONEWEB-0149             
1 48058U 21025S   26191.31677878  .00000049  00000+0  99813-4 0  9997
2 48058  87.8986 315.6210 0001859  91.2154 268.9188 13.13470301256521
ONEWEB-0148             
1 48059U 21025T   26191.35570962  .00000010  00000+0 -81833-5 0  9991
2 48059  87.8976 315.6187 0002080  82.0668 278.0698 13.13468876256655
ONEWEB-0160             
1 48060U 21025U   26191.75351757 -.00000293  00000+0 -83852-3 0  9991
2 48060  87.8969 315.5365 0001220 111.1007 249.0252 13.13469515256657
ONEWEB-0163             
1 48061U 21025V   26192.11917875  .00000066  00000+0  14663-3 0  9992
2 48061  87.8977 315.4609 0002152  99.2317 260.9055 13.13468362256823
ONEWEB-0159             
1 48062U 21025W   26190.28245088  .00000015  00000+0  54423-5 0  9993
2 48062  87.8985 315.8184 0002152  99.5838 260.5535 13.13469135256509
ONEWEB-0164             
1 48063U 21025X   26191.33031762  .00000305  00000+0  79936-3 0  9999
2 48063  87.8982 315.6166 0001891 101.6260 258.5081 13.13469361256625
ONEWEB-0167             
1 48064U 21025Y   26191.28207744 -.00000107  00000+0 -32769-3 0  9994
2 48064  87.8974 315.6336 0002445 112.0386 248.1003 13.13469205256601
ONEWEB-0166             
1 48065U 21025Z   26191.30492471 -.00000282  00000+0 -80813-3 0  9998
2 48065  87.8991 315.6036 0001983  98.2219 261.9135 13.13470319256689
ONEWEB-0151             
1 48066U 21025AA  26191.30660918 -.00000173  00000+0 -50925-3 0  9992
2 48066  87.8968 315.6178 0001934 104.1051 256.0293 13.13470271256629
ONEWEB-0170             
1 48067U 21025AB  26191.31507240  .00000023  00000+0  28249-4 0  9999
2 48067  87.8974 315.6185 0001706 116.8089 243.3215 13.13469697256581
ONEWEB-0168             
1 48068U 21025AC  26191.75690444 -.00000290  00000+0 -82801-3 0  9998
2 48068  87.8979 315.5318 0001999 100.2692 259.8663 13.13469189256658
ONEWEB-0173             
1 48069U 21025AD  26190.30106805 -.00000273  00000+0 -78266-3 0  9993
2 48069  87.8976 315.8212 0002284 103.0214 257.1171 13.13469668256704
ONEWEB-0171             
1 48070U 21025AE  26191.32862304  .00000257  00000+0  66759-3 0  9995
2 48070  87.8973 315.6242 0001918 102.2920 257.8424 13.13469640256654
ONEWEB-0172             
1 48071U 21025AF  26191.30830528 -.00000161  00000+0 -47671-3 0  9995
2 48071  87.8984 315.6199 0002057 103.2327 256.9032 13.13470878257544
ONEWEB-0174             
1 48072U 21025AG  26190.29937797 -.00000269  00000+0 -77099-3 0  9995
2 48072  87.8982 315.8191 0001978  95.7535 264.3820 13.13469181256737
ONEWEB-0175             
1 48073U 21025AH  26191.32015835  .00000130  00000+0  32052-3 0  9996
2 48073  87.8977 315.6021 0002014 111.4979 248.6365 13.13470035256528
ONEWEB-0177             
1 48074U 21025AJ  26191.33201215  .00000647  00000+0  17374-2 0  9999
2 48074  87.8990 315.6177 0002031  99.8531 260.2828 13.13469057256715
ONEWEB-0178             
1 48075U 21025AK  26191.27459575  .00000121  00000+0  29577-3 0  9993
2 48075  87.8975 315.6381 0002114 103.9670 256.1694 13.13469862256752
ONEWEB-0108             
1 48076U 21025AL  26191.30999977 -.00000094  00000+0 -29335-3 0  9996
2 48076  87.8983 315.6137 0001739  95.6101 264.5227 13.13469812256681
ONEWEB-0169             
1 48077U 21025AM  26190.27568057  .00000175  00000+0  44443-3 0  9998
2 48077  87.8988 315.8237 0002025  94.6036 265.5324 13.13469031255204
ONEWEB-0176             
1 48210U 21031A   26192.23221135  .00000062  00000+0  13212-3 0  9990
2 48210  87.8967 284.9086 0002143 101.4158 258.7213 13.14502235251472
ONEWEB-0184             
1 48211U 21031B   26192.20525198 -.00000189  00000+0 -54454-3 0  9999
2 48211  87.8978 284.9157 0002522 116.4342 243.7046 13.14502371251442
ONEWEB-0179             
1 48212U 21031C   26191.18912044  .00001501  00000+0  48503-3 0  9991
2 48212  87.8995 281.4390 0220842 181.7306 178.3150 14.25563332252329
ONEWEB-0180             
1 48213U 21031D   26192.20842830 -.00000246  00000+0 -69828-3 0  9991
2 48213  87.8978 284.9118 0002496 100.0559 260.0853 13.14502558251377
ONEWEB-0218             
1 48214U 21031E   26192.23062633  .00000108  00000+0  25711-3 0  9998
2 48214  87.8976 284.9076 0002737 114.1228 246.0188 13.14503487251531
ONEWEB-0209             
1 48215U 21031F   26192.21953213 -.00000131  00000+0 -38656-3 0  9990
2 48215  87.8966 284.9238 0002278  96.7031 263.4358 13.14503468251539
